CCSDS_OMM_VERS = 2.0
CREATION_DATE  = 
ORIGINATOR     = 

OBJECT_NAME    = COSMOS 1892
OBJECT_ID      = 1987-088A
CENTER_NAME    = EARTH
REF_FRAME      = TEME
TIME_SYSTEM    = UTC
MEAN_ELEMENT_THEORY = SGP/SGP4

EPOCH          = 2025-11-05T19:24:52.326144
MEAN_MOTION    = 15.94209387
ECCENTRICITY   = .00057044
INCLINATION    = 82.4684
RA_OF_ASC_NODE = 85.3478
ARG_OF_PERICENTER = 298.4174
MEAN_ANOMALY   = 61.6526

EPHEMERIS_TYPE = 0
CLASSIFICATION_TYPE = U
NORAD_CAT_ID   = 18421
ELEMENT_SET_NO = 999
REV_AT_EPOCH   = 8540
BSTAR          = .73573275E-3
MEAN_MOTION_DOT = .272293E-2
MEAN_MOTION_DDOT = .27017538E-4

CCSDS_OMM_VERS = 2.0
CREATION_DATE  = 
ORIGINATOR     = 

OBJECT_NAME    = SL-14 R/B
OBJECT_ID      = 1988-001B
CENTER_NAME    = EARTH
REF_FRAME      = TEME
TIME_SYSTEM    = UTC
MEAN_ELEMENT_THEORY = SGP/SGP4

EPOCH          = 2025-11-05T11:00:57.492864
MEAN_MOTION    = 14.85361777
ECCENTRICITY   = .00165839
INCLINATION    = 82.5106
RA_OF_ASC_NODE = 312.2202
ARG_OF_PERICENTER = 291.1682
MEAN_ANOMALY   = 68.7761

EPHEMERIS_TYPE = 0
CLASSIFICATION_TYPE = U
NORAD_CAT_ID   = 18749
ELEMENT_SET_NO = 999
REV_AT_EPOCH   = 2358
BSTAR          = .69919292E-4
MEAN_MOTION_DOT = .626E-5
MEAN_MOTION_DDOT = 0

CCSDS_OMM_VERS = 2.0
CREATION_DATE  = 
ORIGINATOR     = 

OBJECT_NAME    = COSMOS 1933
OBJECT_ID      = 1988-020A
CENTER_NAME    = EARTH
REF_FRAME      = TEME
TIME_SYSTEM    = UTC
MEAN_ELEMENT_THEORY = SGP/SGP4

EPOCH          = 2025-11-05T17:54:06.443424
MEAN_MOTION    = 15.16667685
ECCENTRICITY   = .00028225
INCLINATION    = 82.5160
RA_OF_ASC_NODE = 13.4165
ARG_OF_PERICENTER = 268.6325
MEAN_ANOMALY   = 91.4585

EPHEMERIS_TYPE = 0
CLASSIFICATION_TYPE = U
NORAD_CAT_ID   = 18958
ELEMENT_SET_NO = 999
REV_AT_EPOCH   = 3143
BSTAR          = .22900713E-3
MEAN_MOTION_DOT = .451E-4
MEAN_MOTION_DDOT = 0

CCSDS_OMM_VERS = 2.0
CREATION_DATE  = 
ORIGINATOR     = 

OBJECT_NAME    = SL-3 R/B
OBJECT_ID      = 1988-032B
CENTER_NAME    = EARTH
REF_FRAME      = TEME
TIME_SYSTEM    = UTC
MEAN_ELEMENT_THEORY = SGP/SGP4

EPOCH          = 2025-11-05T21:25:35.805792
MEAN_MOTION    = 15.18159432
ECCENTRICITY   = .00254433
INCLINATION    = 97.5042
RA_OF_ASC_NODE = 288.8903
ARG_OF_PERICENTER = 308.2924
MEAN_ANOMALY   = 51.6022

EPHEMERIS_TYPE = 0
CLASSIFICATION_TYPE = U
NORAD_CAT_ID   = 19046
ELEMENT_SET_NO = 999
REV_AT_EPOCH   = 3331
BSTAR          = .37457282E-3
MEAN_MOTION_DOT = .7647E-4
MEAN_MOTION_DDOT = 0

CCSDS_OMM_VERS = 2.0
CREATION_DATE  = 
ORIGINATOR     = 

OBJECT_NAME    = SL-16 R/B
OBJECT_ID      = 1988-039B
CENTER_NAME    = EARTH
REF_FRAME      = TEME
TIME_SYSTEM    = UTC
MEAN_ELEMENT_THEORY = SGP/SGP4

EPOCH          = 2025-11-05T11:19:00.477120
MEAN_MOTION    = 14.19586485
ECCENTRICITY   = .00215472
INCLINATION    = 71.0149
RA_OF_ASC_NODE = 331.2013
ARG_OF_PERICENTER = 176.9898
MEAN_ANOMALY   = 183.1361

EPHEMERIS_TYPE = 0
CLASSIFICATION_TYPE = U
NORAD_CAT_ID   = 19120
ELEMENT_SET_NO = 999
REV_AT_EPOCH   = 94075
BSTAR          = .63994557E-4
MEAN_MOTION_DOT = .87E-6
MEAN_MOTION_DDOT = 0

CCSDS_OMM_VERS = 2.0
CREATION_DATE  = 
ORIGINATOR     = 

OBJECT_NAME    = COSMOS 1953
OBJECT_ID      = 1988-050A
CENTER_NAME    = EARTH
REF_FRAME      = TEME
TIME_SYSTEM    = UTC
MEAN_ELEMENT_THEORY = SGP/SGP4

EPOCH          = 2025-11-05T23:58:08.875776
MEAN_MOTION    = 15.26327943
ECCENTRICITY   = .00113787
INCLINATION    = 82.5061
RA_OF_ASC_NODE = 282.4339
ARG_OF_PERICENTER = 189.0171
MEAN_ANOMALY   = 171.0865

EPHEMERIS_TYPE = 0
CLASSIFICATION_TYPE = U
NORAD_CAT_ID   = 19210
ELEMENT_SET_NO = 999
REV_AT_EPOCH   = 1890
BSTAR          = .25992831E-3
MEAN_MOTION_DOT = .6792E-4
MEAN_MOTION_DDOT = 0

CCSDS_OMM_VERS = 2.0
CREATION_DATE  = 
ORIGINATOR     = 

OBJECT_NAME    = SL-8 R/B
OBJECT_ID      = 1988-053B
CENTER_NAME    = EARTH
REF_FRAME      = TEME
TIME_SYSTEM    = UTC
MEAN_ELEMENT_THEORY = SGP/SGP4

EPOCH          = 2025-11-05T13:39:52.502688
MEAN_MOTION    = 14.38824753
ECCENTRICITY   = .00203646
INCLINATION    = 74.0480
RA_OF_ASC_NODE = 341.2288
ARG_OF_PERICENTER = 196.4596
MEAN_ANOMALY   = 319.1435

EPHEMERIS_TYPE = 0
CLASSIFICATION_TYPE = U
NORAD_CAT_ID   = 19257
ELEMENT_SET_NO = 999
REV_AT_EPOCH   = 95874
BSTAR          = .11637864E-3
MEAN_MOTION_DOT = .332E-5
MEAN_MOTION_DDOT = 0

CCSDS_OMM_VERS = 2.0
CREATION_DATE  = 
ORIGINATOR     = 

OBJECT_NAME    = COSMOS 1975
OBJECT_ID      = 1988-093A
CENTER_NAME    = EARTH
REF_FRAME      = TEME
TIME_SYSTEM    = UTC
MEAN_ELEMENT_THEORY = SGP/SGP4

EPOCH          = 2025-11-05T19:10:47.974368
MEAN_MOTION    = 15.25586918
ECCENTRICITY   = .00094546
INCLINATION    = 82.5221
RA_OF_ASC_NODE = 241.7809
ARG_OF_PERICENTER = 244.5274
MEAN_ANOMALY   = 115.4986

EPHEMERIS_TYPE = 0
CLASSIFICATION_TYPE = U
NORAD_CAT_ID   = 19573
ELEMENT_SET_NO = 999
REV_AT_EPOCH   = 50
BSTAR          = .44468216E-3
MEAN_MOTION_DOT = .11339E-3
MEAN_MOTION_DDOT = 0

CCSDS_OMM_VERS = 2.0
CREATION_DATE  = 
ORIGINATOR     = 

OBJECT_NAME    = SL-14 R/B
OBJECT_ID      = 1988-093B
CENTER_NAME    = EARTH
REF_FRAME      = TEME
TIME_SYSTEM    = UTC
MEAN_ELEMENT_THEORY = SGP/SGP4

EPOCH          = 2025-11-05T14:03:46.353024
MEAN_MOTION    = 14.85491395
ECCENTRICITY   = .00223299
INCLINATION    = 82.5305
RA_OF_ASC_NODE = 158.5335
ARG_OF_PERICENTER = 88.7888
MEAN_ANOMALY   = 292.4229

EPHEMERIS_TYPE = 0
CLASSIFICATION_TYPE = U
NORAD_CAT_ID   = 19574
ELEMENT_SET_NO = 999
REV_AT_EPOCH   = 98261
BSTAR          = .58952532E-4
MEAN_MOTION_DOT = .536E-5
MEAN_MOTION_DDOT = 0

CCSDS_OMM_VERS = 2.0
CREATION_DATE  = 
ORIGINATOR     = 

OBJECT_NAME    = SL-16 R/B
OBJECT_ID      = 1988-102B
CENTER_NAME    = EARTH
REF_FRAME      = TEME
TIME_SYSTEM    = UTC
MEAN_ELEMENT_THEORY = SGP/SGP4

EPOCH          = 2025-11-05T17:27:58.095936
MEAN_MOTION    = 14.16130917
ECCENTRICITY   = .00151468
INCLINATION    = 71.0011
RA_OF_ASC_NODE = 52.3170
ARG_OF_PERICENTER = 208.4139
MEAN_ANOMALY   = 151.6160

EPHEMERIS_TYPE = 0
CLASSIFICATION_TYPE = U
NORAD_CAT_ID   = 19650
ELEMENT_SET_NO = 999
REV_AT_EPOCH   = 90934
BSTAR          = -.30515238E-4
MEAN_MOTION_DOT = -.108E-5
MEAN_MOTION_DDOT = 0

CCSDS_OMM_VERS = 2.0
CREATION_DATE  = 
ORIGINATOR     = 

OBJECT_NAME    = INTERCOSMOS 24
OBJECT_ID      = 1989-080A
CENTER_NAME    = EARTH
REF_FRAME      = TEME
TIME_SYSTEM    = UTC
MEAN_ELEMENT_THEORY = SGP/SGP4

EPOCH          = 2025-11-05T15:21:03.470400
MEAN_MOTION    = 12.59355713
ECCENTRICITY   = .11878255
INCLINATION    = 82.6085
RA_OF_ASC_NODE = 185.0767
ARG_OF_PERICENTER = 220.5959
MEAN_ANOMALY   = 130.0446

EPHEMERIS_TYPE = 0
CLASSIFICATION_TYPE = U
NORAD_CAT_ID   = 20261
ELEMENT_SET_NO = 999
REV_AT_EPOCH   = 65118
BSTAR          = .21523324E-3
MEAN_MOTION_DOT = .731E-5
MEAN_MOTION_DDOT = 0

CCSDS_OMM_VERS = 2.0
CREATION_DATE  = 
ORIGINATOR     = 

OBJECT_NAME    = SL-14 R/B
OBJECT_ID      = 1989-080C
CENTER_NAME    = EARTH
REF_FRAME      = TEME
TIME_SYSTEM    = UTC
MEAN_ELEMENT_THEORY = SGP/SGP4

EPOCH          = 2025-11-05T20:37:05.883168
MEAN_MOTION    = 12.50373571
ECCENTRICITY   = .12314377
INCLINATION    = 82.5919
RA_OF_ASC_NODE = 252.6879
ARG_OF_PERICENTER = 107.8327
MEAN_ANOMALY   = 266.0741

EPHEMERIS_TYPE = 0
CLASSIFICATION_TYPE = U
NORAD_CAT_ID   = 20262
ELEMENT_SET_NO = 999
REV_AT_EPOCH   = 64467
BSTAR          = .79527514E-4
MEAN_MOTION_DOT = .296E-5
MEAN_MOTION_DDOT = 0

