COSMOS 1892             
1 18421U 87088A   25309.80893896  .00272293  27018-4  73573-3 0  9992
2 18421  82.4684  85.3478 0005704 298.4174  61.6526 15.94209387 85407
SL-14 R/B               
1 18749U 88001B   25309.45899876  .00000626  00000+0  69919-4 0  9992
2 18749  82.5106 312.2202 0016583 291.1682  68.7761 14.85361777 23589
COSMOS 1933             
1 18958U 88020A   25309.74590791  .00004510  00000+0  22901-3 0  9996
2 18958  82.5160  13.4165 0002822 268.6325  91.4585 15.16667685 31435
SL-3 R/B                
1 19046U 88032B   25309.89277553  .00007647  00000+0  37457-3 0  9998
2 19046  97.5042 288.8903 0025443 308.2924  51.6022 15.18159432 33318
SL-16 R/B               
1 19120U 88039B   25309.47153330  .00000087  00000+0  63995-4 0  9996
2 19120  71.0149 331.2013 0021547 176.9898 183.1361 14.19586485940756
COSMOS 1953             
1 19210U 88050A   25309.99871384  .00006792  00000+0  25993-3 0  9996
2 19210  82.5061 282.4339 0011378 189.0171 171.0865 15.26327943 18903
SL-8 R/B                
1 19257U 88053B   25309.56935767  .00000332  00000+0  11638-3 0  9994
2 19257  74.0480 341.2288 0020364 196.4596 319.1435 14.38824753958746
COSMOS 1975             
1 19573U 88093A   25309.79916637  .00011339  00000+0  44468-3 0  9995
2 19573  82.5221 241.7809 0009454 244.5274 115.4986 15.25586918   507
SL-14 R/B               
1 19574U 88093B   25309.58595316  .00000536  00000+0  58953-4 0  9992
2 19574  82.5305 158.5335 0022329  88.7888 292.4229 14.85491395982611
SL-16 R/B               
1 19650U 88102B   25309.72775574 -.00000108  00000+0 -30515-4 0  9991
2 19650  71.0011  52.3170 0015146 208.4139 151.6160 14.16130917909343
INTERCOSMOS 24          
1 20261U 89080A   25309.63962350  .00000731  00000+0  21523-3 0  9995
2 20261  82.6085 185.0767 1187825 220.5959 130.0446 12.59355713651180
SL-14 R/B               
1 20262U 89080C   25309.85909587  .00000296  00000+0  79528-4 0  9998
2 20262  82.5919 252.6879 1231437 107.8327 266.0741 12.50373571644673
